PACE-1                  
1 48909U 21059AG  26068.45301704  .00054700  00000+0  52435-3 0  9990
2 48909  97.6852 256.4197 0002671 313.2963  46.8073 15.66489825262121
HYDRA-W                 
1 63490U 25052BL  26068.25663552  .00214089  00000+0  23110-2 0  9994
2 63490  97.3927 329.3965 0009112 107.1858 253.0398 15.62903885 55121
