[{"OBJECT_NAME":"PACE-1","OBJECT_ID":"2021-059AG","EPOCH":"2026-03-09T10:52:20.672256","MEAN_MOTION":15.66489825,"ECCENTRICITY":0.00026713,"INCLINATION":97.6852,"RA_OF_ASC_NODE":256.4197,"ARG_OF_PERICENTER":313.2963,"MEAN_ANOMALY":46.8073,"EPHEMERIS_TYPE":0,"CLASSIFICATION_TYPE":"U","NORAD_CAT_ID":48909,"ELEMENT_SET_NO":999,"REV_AT_EPOCH":26212,"BSTAR":0.00052434786,"MEAN_MOTION_DOT":0.000547,"MEAN_MOTION_DDOT":0},{"OBJECT_NAME":"HYDRA-W","OBJECT_ID":"2025-052BL","EPOCH":"2026-03-09T06:09:33.308928","MEAN_MOTION":15.62903885,"ECCENTRICITY":0.00091126,"INCLINATION":97.3927,"RA_OF_ASC_NODE":329.3965,"ARG_OF_PERICENTER":107.1858,"MEAN_ANOMALY":253.0398,"EPHEMERIS_TYPE":0,"CLASSIFICATION_TYPE":"U","NORAD_CAT_ID":63490,"ELEMENT_SET_NO":999,"REV_AT_EPOCH":5512,"BSTAR":0.0023110181,"MEAN_MOTION_DOT":0.00214089,"MEAN_MOTION_DDOT":0}]
